STARLINK-36601          
1 67618U 26020B   26042.25001157  .00090982  00000+0  43078-3 0  9995
2 67618  42.9986 302.9015 0002016 280.1615  48.9731 15.81980110  3144
STARLINK-36119          
1 67619U 26020C   26042.25001157  .00098793  00000+0  60273-3 0  9990
2 67619  42.9990 302.9431 0002328 277.3034  34.9523 15.76360603  3148
STARLINK-36607          
1 67620U 26020D   26042.25001157  .00093200  00000+0  44115-3 0  9997
2 67620  42.9987 302.8759 0002224 293.8227  45.4290 15.81977619  3145
STARLINK-36615          
1 67621U 26020E   26042.25001157  .00098549  00000+0  46607-3 0  9997
2 67621  42.9988 302.8855 0002090 284.1452  51.3900 15.81976324  3144
STARLINK-36614          
1 67622U 26020F   26042.25001157 -.01834794  00000+0 -11907-1 0  9994
2 67622  42.9993 302.8840 0001899 262.2915  73.5842 15.78095985  3144
STARLINK-36600          
1 67623U 26020G   26042.25001157  .00035436  00000+0  21976-3 0  9997
2 67623  42.9992 302.9118 0001772 268.7792  55.9699 15.76359273  3142
STARLINK-36439          
1 67624U 26020H   26042.25001157  .00050017  00000+0  23889-3 0  9995
2 67624  42.9985 302.8482 0001832 276.4000  73.7255 15.81997896  3144
STARLINK-36438          
1 67625U 26020J   26042.25001157 -.01838186  00000+0 -11834-1 0  9995
2 67625  42.9990 302.8535 0001632 264.9731  83.0545 15.78281494  3143
STARLINK-36436          
1 67626U 26020K   26042.25001157  .00091779  00000+0  43453-3 0  9996
2 67626  42.9986 302.8198 0002071 298.8793  62.8742 15.81978065  3141
STARLINK-36502          
1 67627U 26020L   26042.25001157  .00078201  00000+0  37111-3 0  9996
2 67627  42.9988 302.8302 0001983 284.7416  72.8455 15.81983627  3140
STARLINK-36532          
1 67628U 26020M   26042.25001157  .00083676  00000+0  39663-3 0  9993
2 67628  42.9988 302.8017 0002389 286.4522  82.3361 15.81984654  3145
STARLINK-36367          
1 67629U 26020N   26042.25001157  .00056742  00000+0  27050-3 0  9995
2 67629  42.9987 302.8086 0001720 256.0293 109.9512 15.81994437  3141
